{
    "links": {
        "self": "http://www.neowsapp.com/rest/v1/neo/3771595?api_key=iIulBulltgU6a56xZRHN4H3l9WmuAYTsLGpBGhQ2"
    },
    "id": "3771595",
    "neo_reference_id": "3771595",
    "name": "(2017 DW119)",
    "designation": "2017 DW119",
    "nasa_jpl_url": "http://ssd.jpl.nasa.gov/sbdb.cgi?sstr=3771595",
    "absolute_magnitude_h": 26.734,
    "estimated_diameter": {
        "kilometers": {
            "estimated_diameter_min": 0.0119606554,
            "estimated_diameter_max": 0.0267448384
        },
        "meters": {
            "estimated_diameter_min": 11.9606553603,
            "estimated_diameter_max": 26.7448384411
        },
        "miles": {
            "estimated_diameter_min": 0.0074320044,
            "estimated_diameter_max": 0.016618467
        },
        "feet": {
            "estimated_diameter_min": 39.2409965324,
            "estimated_diameter_max": 87.7455357512
        }
    },
    "is_potentially_hazardous_asteroid": false,
    "close_approach_data": [
        {
            "close_approach_date": "2017-02-17",
            "close_approach_date_full": "2017-Feb-17 12:01",
            "epoch_date_close_approach": 1487332860000,
            "relative_velocity": {
                "kilometers_per_second": "7.6900479407",
                "kilometers_per_hour": "27684.1725865103",
                "miles_per_hour": "17201.8682385458"
            },
            "miss_distance": {
                "astronomical": "0.0385274784",
                "lunar": "14.9871890976",
                "kilometers": "5763628.705111008",
                "miles": "3581352.8078195904"
            },
            "orbiting_body": "Earth"
        }
    ],
    "orbital_data": {
        "orbit_id": "2",
        "orbit_determination_date": "2017-04-06 08:19:48",
        "first_observation_date": "2017-02-22",
        "last_observation_date": "2017-02-24",
        "data_arc_in_days": 2,
        "observations_used": 7,
        "orbit_uncertainty": "9",
        "minimum_orbit_intersection": ".0231562",
        "jupiter_tisserand_invariant": "3.263",
        "epoch_osculation": "2457808.5",
        "eccentricity": ".5820804342439199",
        "semi_major_axis": "2.413570817571695",
        "inclination": ".3808297905442393",
        "ascending_node_longitude": "305.9765484836768",
        "orbital_period": "1369.583439707648",
        "perihelion_distance": "1.00867846800111",
        "perihelion_argument": "186.68719504",
        "aphelion_distance": "3.81846316714228",
        "perihelion_time": "2457789.623944065573",
        "mean_anomaly": "4.961640115803578",
        "mean_motion": ".2628536455411914",
        "equinox": "J2000",
        "orbit_class": {
            "orbit_class_type": "APO",
            "orbit_class_description": "Near-Earth asteroid orbits which cross the Earth’s orbit similar to that of 1862 Apollo",
            "orbit_class_range": "a (semi-major axis) > 1.0 AU; q (perihelion) < 1.017 AU"
        }
    },
    "is_sentry_object": false
}